[{"OBJECT_NAME":"YAOGAN-43 02E","OBJECT_ID":"2024-156E","EPOCH":"2026-03-09T13:12:54.412128","MEAN_MOTION":15.23060161,"ECCENTRICITY":0.0005405,"INCLINATION":34.9961,"RA_OF_ASC_NODE":104.8049,"ARG_OF_PERICENTER":120.2112,"MEAN_ANOMALY":239.9138,"EPHEMERIS_TYPE":0,"CLASSIFICATION_TYPE":"U","NORAD_CAT_ID":60949,"ELEMENT_SET_NO":999,"REV_AT_EPOCH":8424,"BSTAR":0.00066597,"MEAN_MOTION_DOT":0.00016075,"MEAN_MOTION_DDOT":0},{"OBJECT_NAME":"OBJECT AG","OBJECT_ID":"2025-313AG","EPOCH":"2026-03-09T22:37:52.608000","MEAN_MOTION":15.21637912,"ECCENTRICITY":0.00154165,"INCLINATION":97.3989,"RA_OF_ASC_NODE":145.1743,"ARG_OF_PERICENTER":5.2806,"MEAN_ANOMALY":354.859,"EPHEMERIS_TYPE":0,"CLASSIFICATION_TYPE":"U","NORAD_CAT_ID":67278,"ELEMENT_SET_NO":999,"REV_AT_EPOCH":1086,"BSTAR":0.000405111,"MEAN_MOTION_DOT":9.115e-5,"MEAN_MOTION_DDOT":0}]
